STARLINK-34081          
1 64044U 25102Y   25162.91668981  .00003447  00000+0  82098-4 0  9990
2 64044  70.0011  81.9192 0003345 267.9093 113.2144 15.42695786  4418
STARLINK-34033          
1 64045U 25102Z   25162.91668981 -.01870863  00000+0 -45325-1 0  9997
2 64045  70.0010  81.8418 0003697 275.6506 171.6756 15.44103962  4412
STARLINK-33952          
1 64046U 25102AA  25162.91668981 -.01496104  00000+0 -33954-1 0  9995
2 64046  70.0003  81.8192 0003741 276.9667 187.9674 15.45820227  4416
STARLINK-33961          
1 64047U 25102AB  25162.91668981 -.00014504  00000+0 -32832-3 0  9991
2 64047  70.0012  81.8693 0003559 268.7028 156.4021 15.42719570  4412
TIANYI A                
1 64048U 25103A   25162.91792914  .00002671  00000+0  14703-3 0  9994
2 64048  97.4138 237.9222 0005789  62.8798 297.3024 15.14870022  3899
TIANYI B                
1 64049U 25103B   25162.91085172  .00004879  00000+0  26307-3 0  9991
2 64049  97.4193 237.9509 0003597  58.2743 301.8840 15.15227410  3898
TIANYI C                
1 64050U 25103C   25162.91063803  .00005125  00000+0  27600-3 0  9992
2 64050  97.4152 237.9372 0003673  55.0651 305.0926 15.15245100  3898
TIANYI D                
1 64051U 25103D   25162.91091289  .00003092  00000+0  16830-3 0  9996
2 64051  97.4220 237.9596 0004026  51.5462 308.6131 15.15165786  3884
TIANYI E                
1 64052U 25103E   25162.90978389  .00005464  00000+0  29345-3 0  9991
2 64052  97.4157 237.9401 0004030  47.4422 312.7150 15.15315584  3884
TIANYI F                
1 64053U 25103F   25162.90855109  .00002791  00000+0  15126-3 0  9998
2 64053  97.4199 237.9554 0004045  42.4810 317.6735 15.15395409  3902
QPS-SAR-10 (WADATSUMI-I)
1 64055U 25104A   25162.85222583  .00003010  00000+0  27052-3 0  9995
2 64055  42.0038 154.4273 0006866  76.4329 283.7260 14.97292235  3838
ELECTRON R/B            
1 64056U 25104B   25162.90572404  .00815783  76327-5  14944-2 0  9996
2 64056  41.9345 139.6163 0179334  68.2330 293.7502 15.77499244  3998
ELECTRON KICK STAGE R/B 
1 64057U 25104C   25162.90598516  .00116293  10495-4  10561-2 0  9993
2 64057  42.0028 143.4056 0188282  88.2433 273.9964 15.48091752  3601
TIANQI A                
1 64058U 25105A   25162.56027565 -.00000024  00000+0  58558-4 0  9999
2 64058  44.9832 231.4671 0011603  70.3787   3.5772 14.12683243  3283
TIANQI B                
1 64059U 25105B   25162.25814307  .00000028  00000+0  85305-4 0  9997
2 64059  44.9780 232.7822 0010595  70.4263 289.7718 14.13347388  3249
TIANQI C                
1 64060U 25105C   25162.56997001  .00000017  00000+0  80397-4 0  9990
2 64060  44.9815 231.4054 0011549  85.0560  51.4484 14.12825264  3286
TIANQI D                
1 64061U 25105D   25162.25925897  .00000005  00000+0  72892-4 0  9999
2 64061  44.9844 232.7986 0011020  78.3064 281.9010 14.13678291  3254
CHINASAT 3B             
1 64062U 25106A   25162.81919875 -.00000026  00000+0  00000+0 0  9993
2 64062   0.0154  33.3616 0000823 242.0246  87.2642  1.00273581   348
CZ-7A R/B               
1 64063U 25106B   25161.80284127  .00363301  13068-5  37275-2 0  9995
2 64063  15.5866  67.2033 7135885 196.5967 114.7348  2.52240354   536
STARLINK-11741 [DTC]    
1 64064U 25107A   25162.79841247  .00202700  00000+0  11365-2 0  9991
2 64064  42.9982 292.9050 0002165 262.7491  97.3133 15.77927342  4678
STARLINK-11709 [DTC]    
1 64065U 25107B   25162.79353461  .00235726  00000+0  13156-2 0  9992
2 64065  42.9983 292.8657 0001781 269.2505  90.8161 15.77935716  4676
STARLINK-11737 [DTC]    
1 64066U 25107C   25162.78865653  .00139519  00000+0  79002-3 0  9999
2 64066  42.9989 292.8281 0001760 279.4195  80.6476 15.77898722  4672
STARLINK-11726 [DTC]    
1 64067U 25107D   25162.91668981 -.00040622  00000+0 -23126-3 0  9994
2 64067  42.9990 291.9797 0001570 275.1326 120.8186 15.77895785  4665
STARLINK-11700 [DTC]    
1 64068U 25107E   25162.91668981 -.00041530  00000+0 -23658-3 0  9994
2 64068  42.9996 291.9109 0001734 276.9891 146.7187 15.77889211  4684
STARLINK-11649 [DTC]    
1 64069U 25107F   25162.91668981 -.00041804  00000+0 -23813-3 0  9992
2 64069  42.9993 291.8408 0001755 271.1905 180.2675 15.77892429  4689
STARLINK-11713 [DTC]    
1 64070U 25107G   25162.91668981 -.00048576  00000+0 -27741-3 0  9991
2 64070  42.9995 291.7720 0001523 274.6254 204.5844 15.77892073  4680
STARLINK-11719 [DTC]    
1 64071U 25107H   25162.91668981 -.00048203  00000+0 -27522-3 0  9996
2 64071  42.9994 291.7031 0001695 270.4041 236.5569 15.77893486  4681
STARLINK-11733 [DTC]    
1 64072U 25107J   25162.91668981 -.00039135  00000+0 -22276-3 0  9992
2 64072  43.0009 291.6347 0001750 273.7899 260.9254 15.77883815  4686
STARLINK-11729 [DTC]    
1 64073U 25107K   25162.91668981 -.00708574  00000+0 -43098-2 0  9997
2 64073  43.0039 291.5664 0001492 271.0487 291.0889 15.78404496  4682
STARLINK-11730 [DTC]    
1 64074U 25107L   25162.91668981 -.01000200  00000+0 -57168-2 0  9993
2 64074  43.0047 291.5110 0001472 267.1353 317.1862 15.80514473  4685
STARLINK-11723 [DTC]    
1 64075U 25107M   25162.91668981 -.00994125  00000+0 -51521-2 0  9998
2 64075  43.0048 291.4721 0001850 271.2446 328.4262 15.82575377  4639
STARLINK-11715 [DTC]    
1 64076U 25107N   25162.81069710  .00165049  00000+0  67518-3 0  9990
2 64076  43.0047 292.1088 0002486 245.1722 114.8893 15.84830980  4684
STARLINK-34201          
1 64077U 25107P   25162.91668981 -.00191651  00000+0 -33264-2 0  9997
2 64077  42.9998 293.0412 0001069 267.2220  59.3271 15.50706945  4581
STARLINK-34190          
1 64078U 25107Q   25162.91668981 -.00231714  00000+0 -40432-2 0  9998
2 64078  43.0001 293.0257 0001238 281.8259  50.4837 15.50708088  4533
STARLINK-34168          
1 64079U 25107R   25162.91668981 -.00230977  00000+0 -40301-2 0  9994
2 64079  42.9999 293.0359 0001023 264.3673  64.1079 15.50707720  4698
STARLINK-34098          
1 64080U 25107S   25162.91668981 -.00235614  00000+0 -41131-2 0  9991
2 64080  43.0000 293.0305 0001028 255.9001  74.4913 15.50710657  4696
STARLINK-34180          
1 64081U 25107T   25162.91668981 -.00238546  00000+0 -41657-2 0  9992
2 64081  43.0000 293.0212 0000973 257.0992  77.1256 15.50712200  4690
STARLINK-34171          
1 64082U 25107U   25162.91668981 -.00239408  00000+0 -41812-2 0  9994
2 64082  43.0001 293.0168 0001019 253.2486  82.8940 15.50712253  4691
STARLINK-34126          
1 64083U 25107V   25162.91668981 -.00226437  00000+0 -39487-2 0  9998
2 64083  43.0000 293.0015 0001063 274.3421  67.5521 15.50706133  4587
STARLINK-34157          
1 64084U 25107W   25162.91668981 -.00233207  00000+0 -40700-2 0  9992
2 64084  43.0000 292.9967 0000979 258.4006  85.4103 15.50709350  4690
STARLINK-34140          
1 64085U 25107X   25162.91668981 -.00233878  00000+0 -40819-2 0  9998
2 64085  42.9998 293.0112 0001061 257.8762  80.1826 15.50710227  4693
STARLINK-34132          
1 64086U 25107Y   25162.91668981 -.00234994  00000+0 -41021-2 0  9995
2 64086  42.9999 293.0065 0001060 265.1121  74.8661 15.50709416  4428
2025-108A               
1 64087U 25108A   25162.90060528  .00004351  00000+0  24601-3 0  9995
2 64087  97.5132 238.4175 0015720 211.0691 148.9612 15.13502339  3296
2025-108B               
1 64088U 25108B   25162.90633754  .00006016  00000+0  34204-3 0  9993
2 64088  97.5095 238.4001 0014976 204.7997 155.2516 15.13158646  3251
2025-108C               
1 64089U 25108C   25162.90840931  .00004045  00000+0  23238-3 0  9996
2 64089  97.5064 238.3853 0016116 205.0536 154.9915 15.12964338  3254
2025-108D               
1 64090U 25108D   25162.90450460  .00003359  00000+0  19157-3 0  9994
2 64090  97.5064 238.3943 0014819 209.5022 150.5374 15.13367629  3255
2025-108E               
1 64091U 25108E   25162.90554705  .00007637  00000+0  43198-3 0  9997
2 64091  97.5057 238.3910 0015015 205.1555 154.8946 15.13251044  3259
2025-108F               
1 64092U 25108F   25162.90338356  .00010410  00000+0  58421-3 0  9998
2 64092  97.5051 238.3924 0015053 207.6666 152.3766 15.13438135  3252
ZK-1 R/B                
1 64093U 25108G   25162.91454212  .00009347  00000+0  22688-3 0  9993
2 64093  97.4644 239.0274 0104043 301.1794  57.9281 15.35734516  3300
COSMOS 2588             
1 64095U 25109A   25162.82082328  .00006740  00000+0  22773-3 0  9990
2 64095  72.9726 327.5440 0011550 214.0749 145.9707 15.30852054  2988
STARLINK-34178          
1 64096U 25110A   25162.91668981 -.02130499  00000+0 -32253-1 0  9993
2 64096  53.1597 214.7971 0001330 106.3420 143.6501 15.57296302  4218
STARLINK-34174          
1 64097U 25110B   25162.91668981  .00055769  00000+0  10055-2 0  9993
2 64097  53.1599 214.9541 0001172  74.0842  97.5572 15.49255773  4212
STARLINK-34146          
1 64098U 25110C   25162.91668981  .00056202  00000+0  10132-2 0  9993
2 64098  53.1598 214.9497 0001046  80.9081  92.6497 15.49255482  4212
STARLINK-34074          
1 64099U 25110D   25162.91668981  .00058484  00000+0  10538-2 0  9998
2 64099  53.1594 214.9455 0001189  66.8369 108.6377 15.49253272  4213
STARLINK-34082          
1 64100U 25110E   25162.91668981  .00066891  00000+0  12030-2 0  9991
2 64100  53.1596 214.9416 0001099  65.9757 111.4182 15.49248987  4219
STARLINK-34072          
1 64101U 25110F   25162.91668981  .00057441  00000+0  10352-2 0  9998
2 64101  53.1597 214.9379 0001204  69.2875 110.0183 15.49255361  4215
STARLINK-34104          
1 64102U 25110G   25162.91668981  .00060616  00000+0  10917-2 0  9994
2 64102  53.1598 214.9333 0001034  69.1946 112.0325 15.49251057  4214
STARLINK-34179          
1 64103U 25110H   25162.91668981  .00060337  00000+0  10868-2 0  9990
2 64103  53.1597 214.9302 0001129  70.0880 113.0565 15.49249932  4219
STARLINK-34176          
1 64104U 25110J   25162.91668981  .00055626  00000+0  10029-2 0  9995
2 64104  53.1599 214.9258 0000985  71.4714 113.5820 15.49257947  4216
